[{"OBJECT_NAME":"STARLINK-31183","OBJECT_ID":"2024-005V","EPOCH":"2026-03-09T22:00:01.999584","MEAN_MOTION":15.26709704,"ECCENTRICITY":0.00016508,"INCLINATION":43.0011,"RA_OF_ASC_NODE":218.4644,"ARG_OF_PERICENTER":267.82,"MEAN_ANOMALY":267.9713,"EPHEMERIS_TYPE":0,"CLASSIFICATION_TYPE":"U","NORAD_CAT_ID":58747,"ELEMENT_SET_NO":999,"REV_AT_EPOCH":578,"BSTAR":0.0024044262,"MEAN_MOTION_DOT":0.00064745,"MEAN_MOTION_DDOT":0},{"OBJECT_NAME":"NUSAT-45 (UZMASAT-1)","OBJECT_ID":"2025-009AH","EPOCH":"2026-03-09T03:44:32.024544","MEAN_MOTION":15.26632732,"ECCENTRICITY":0.00011721,"INCLINATION":97.3985,"RA_OF_ASC_NODE":150.3373,"ARG_OF_PERICENTER":1.4631,"MEAN_ANOMALY":358.6611,"EPHEMERIS_TYPE":0,"CLASSIFICATION_TYPE":"U","NORAD_CAT_ID":62640,"ELEMENT_SET_NO":999,"REV_AT_EPOCH":6363,"BSTAR":0.00048087023,"MEAN_MOTION_DOT":0.00012539,"MEAN_MOTION_DDOT":0}]
